[{"OBJECT_NAME":"BEIDOU 3 (C01)","OBJECT_ID":"2010-001A","EPOCH":"2022-08-19T09:16:26.610240","MEAN_MOTION":1.00274221,"ECCENTRICITY":0.0003637,"INCLINATION":2.0078,"RA_OF_ASC_NODE":49.2888,"ARG_OF_PERICENTER":41.4231,"MEAN_ANOMALY":156.5794,"EPHEMERIS_TYPE":0,"CLASSIFICATION_TYPE":"U","NORAD_CAT_ID":36287,"ELEMENT_SET_NO":999,"REV_AT_EPOCH":4614,"BSTAR":0,"MEAN_MOTION_DOT":-2.86e-6,"MEAN_MOTION_DDOT":0},{"OBJECT_NAME":"BEIDOU 5 (C06)","OBJECT_ID":"2010-036A","EPOCH":"2022-08-19T13:02:21.150240","MEAN_MOTION":1.00280684,"ECCENTRICITY":0.0030551,"INCLINATION":54.2013,"RA_OF_ASC_NODE":175.6508,"ARG_OF_PERICENTER":190.2032,"MEAN_ANOMALY":265.3703,"EPHEMERIS_TYPE":0,"CLASSIFICATION_TYPE":"U","NORAD_CAT_ID":36828,"ELEMENT_SET_NO":999,"REV_AT_EPOCH":4421,"BSTAR":0,"MEAN_MOTION_DOT":-1.22e-6,"MEAN_MOTION_DDOT":0},{"OBJECT_NAME":"BEIDOU 6 (C04)","OBJECT_ID":"2010-057A","EPOCH":"2022-08-19T08:36:17.518176","MEAN_MOTION":1.0027325,"ECCENTRICITY":0.0005962,"INCLINATION":0.9618,"RA_OF_ASC_NODE":53.85,"ARG_OF_PERICENTER":131.0658,"MEAN_ANOMALY":71.87,"EPHEMERIS_TYPE":0,"CLASSIFICATION_TYPE":"U","NORAD_CAT_ID":37210,"ELEMENT_SET_NO":999,"REV_AT_EPOCH":4326,"BSTAR":0,"MEAN_MOTION_DOT":-1.18e-6,"MEAN_MOTION_DDOT":0},{"OBJECT_NAME":"BEIDOU 7 (C07)","OBJECT_ID":"2010-068A","EPOCH":"2022-08-19T13:21:40.567392","MEAN_MOTION":1.00287464,"ECCENTRICITY":0.0023828,"INCLINATION":50.1014,"RA_OF_ASC_NODE":288.8938,"ARG_OF_PERICENTER":200.4157,"MEAN_ANOMALY":146.3286,"EPHEMERIS_TYPE":0,"CLASSIFICATION_TYPE":"U","NORAD_CAT_ID":37256,"ELEMENT_SET_NO":999,"REV_AT_EPOCH":4277,"BSTAR":0,"MEAN_MOTION_DOT":-1.84e-6,"MEAN_MOTION_DDOT":0},{"OBJECT_NAME":"BEIDOU 8 (C08)","OBJECT_ID":"2011-013A","EPOCH":"2022-08-19T10:49:41.858688","MEAN_MOTION":1.00290426,"ECCENTRICITY":0.002334,"INCLINATION":60.3839,"RA_OF_ASC_NODE":53.6333,"ARG_OF_PERICENTER":177.118,"MEAN_ANOMALY":6.4462,"EPHEMERIS_TYPE":0,"CLASSIFICATION_TYPE":"U","NORAD_CAT_ID":37384,"ELEMENT_SET_NO":999,"REV_AT_EPOCH":4165,"BSTAR":0,"MEAN_MOTION_DOT":-1.66e-6,"MEAN_MOTION_DDOT":0},{"OBJECT_NAME":"BEIDOU 9 (C09)","OBJECT_ID":"2011-038A","EPOCH":"2022-08-19T07:20:55.228128","MEAN_MOTION":1.00267793,"ECCENTRICITY":0.0099222,"INCLINATION":54.4836,"RA_OF_ASC_NODE":178.1507,"ARG_OF_PERICENTER":228.3525,"MEAN_ANOMALY":126.8164,"EPHEMERIS_TYPE":0,"CLASSIFICATION_TYPE":"U","NORAD_CAT_ID":37763,"ELEMENT_SET_NO":999,"REV_AT_EPOCH":4062,"BSTAR":0,"MEAN_MOTION_DOT":-7.3e-7,"MEAN_MOTION_DDOT":0},{"OBJECT_NAME":"BEIDOU 10 (C10)","OBJECT_ID":"2011-073A","EPOCH":"2022-08-18T02:28:19.220736","MEAN_MOTION":1.00280499,"ECCENTRICITY":0.0085901,"INCLINATION":50.218,"RA_OF_ASC_NODE":288.555,"ARG_OF_PERICENTER":218.5794,"MEAN_ANOMALY":312.31,"EPHEMERIS_TYPE":0,"CLASSIFICATION_TYPE":"U","NORAD_CAT_ID":37948,"ELEMENT_SET_NO":999,"REV_AT_EPOCH":3937,"BSTAR":0,"MEAN_MOTION_DOT":-1.48e-6,"MEAN_MOTION_DDOT":0},{"OBJECT_NAME":"BEIDOU 11 (C05)","OBJECT_ID":"2012-008A","EPOCH":"2022-08-19T15:17:49.980192","MEAN_MOTION":1.00275776,"ECCENTRICITY":0.0013141,"INCLINATION":1.702,"RA_OF_ASC_NODE":68.9824,"ARG_OF_PERICENTER":344.56,"MEAN_ANOMALY":202.6188,"EPHEMERIS_TYPE":0,"CLASSIFICATION_TYPE":"U","NORAD_CAT_ID":38091,"ELEMENT_SET_NO":999,"REV_AT_EPOCH":3846,"BSTAR":0,"MEAN_MOTION_DOT":5.0e-7,"MEAN_MOTION_DDOT":0},{"OBJECT_NAME":"BEIDOU 12 (C11)","OBJECT_ID":"2012-018A","EPOCH":"2022-08-19T12:57:17.468064","MEAN_MOTION":1.86234388,"ECCENTRICITY":0.0021526,"INCLINATION":56.6772,"RA_OF_ASC_NODE":351.4773,"ARG_OF_PERICENTER":249.2403,"MEAN_ANOMALY":138.0368,"EPHEMERIS_TYPE":0,"CLASSIFICATION_TYPE":"U","NORAD_CAT_ID":38250,"ELEMENT_SET_NO":999,"REV_AT_EPOCH":7026,"BSTAR":0,"MEAN_MOTION_DOT":-1.19e-6,"MEAN_MOTION_DDOT":0},{"OBJECT_NAME":"BEIDOU 13 (C12)","OBJECT_ID":"2012-018B","EPOCH":"2022-08-19T10:40:21.366336","MEAN_MOTION":1.86234148,"ECCENTRICITY":0.0012358,"INCLINATION":56.5922,"RA_OF_ASC_NODE":350.8009,"ARG_OF_PERICENTER":248.7365,"MEAN_ANOMALY":118.9625,"EPHEMERIS_TYPE":0,"CLASSIFICATION_TYPE":"U","NORAD_CAT_ID":38251,"ELEMENT_SET_NO":999,"REV_AT_EPOCH":7026,"BSTAR":0,"MEAN_MOTION_DOT":-1.19e-6,"MEAN_MOTION_DDOT":0},{"OBJECT_NAME":"BEIDOU 15 (C14)","OBJECT_ID":"2012-050B","EPOCH":"2022-08-18T09:51:38.718720","MEAN_MOTION":1.86231458,"ECCENTRICITY":0.001354,"INCLINATION":55.4348,"RA_OF_ASC_NODE":109.6001,"ARG_OF_PERICENTER":329.2951,"MEAN_ANOMALY":261.3051,"EPHEMERIS_TYPE":0,"CLASSIFICATION_TYPE":"U","NORAD_CAT_ID":38775,"ELEMENT_SET_NO":999,"REV_AT_EPOCH":6761,"BSTAR":0,"MEAN_MOTION_DOT":-5.4e-7,"MEAN_MOTION_DDOT":0},{"OBJECT_NAME":"BEIDOU 16 (C02)","OBJECT_ID":"2012-059A","EPOCH":"2022-08-19T12:26:53.261664","MEAN_MOTION":1.00271189,"ECCENTRICITY":0.0009333,"INCLINATION":2.1416,"RA_OF_ASC_NODE":84.1308,"ARG_OF_PERICENTER":303.5788,"MEAN_ANOMALY":210.9345,"EPHEMERIS_TYPE":0,"CLASSIFICATION_TYPE":"U","NORAD_CAT_ID":38953,"ELEMENT_SET_NO":999,"REV_AT_EPOCH":3589,"BSTAR":0,"MEAN_MOTION_DOT":-1.83e-6,"MEAN_MOTION_DDOT":0},{"OBJECT_NAME":"BEIDOU 17 (C31)","OBJECT_ID":"2015-019A","EPOCH":"2022-08-18T16:39:42.648768","MEAN_MOTION":1.00284155,"ECCENTRICITY":0.0038059,"INCLINATION":51.7785,"RA_OF_ASC_NODE":312.0344,"ARG_OF_PERICENTER":195.3007,"MEAN_ANOMALY":164.9313,"EPHEMERIS_TYPE":0,"CLASSIFICATION_TYPE":"U","NORAD_CAT_ID":40549,"ELEMENT_SET_NO":999,"REV_AT_EPOCH":2706,"BSTAR":0,"MEAN_MOTION_DOT":-1.85e-6,"MEAN_MOTION_DDOT":0},{"OBJECT_NAME":"BEIDOU 18 (C57)","OBJECT_ID":"2015-037A","EPOCH":"2022-08-19T13:16:02.814240","MEAN_MOTION":1.86233398,"ECCENTRICITY":0.0003028,"INCLINATION":55.8433,"RA_OF_ASC_NODE":349.6253,"ARG_OF_PERICENTER":62.5023,"MEAN_ANOMALY":287.0356,"EPHEMERIS_TYPE":0,"CLASSIFICATION_TYPE":"U","NORAD_CAT_ID":40748,"ELEMENT_SET_NO":999,"REV_AT_EPOCH":4808,"BSTAR":0,"MEAN_MOTION_DOT":-1.21e-6,"MEAN_MOTION_DDOT":0},{"OBJECT_NAME":"BEIDOU 19 (C58)","OBJECT_ID":"2015-037B","EPOCH":"2022-08-19T08:39:27.784800","MEAN_MOTION":1.86232199,"ECCENTRICITY":0.0002119,"INCLINATION":55.8473,"RA_OF_ASC_NODE":349.6218,"ARG_OF_PERICENTER":334.1264,"MEAN_ANOMALY":20.8811,"EPHEMERIS_TYPE":0,"CLASSIFICATION_TYPE":"U","NORAD_CAT_ID":40749,"ELEMENT_SET_NO":999,"REV_AT_EPOCH":4807,"BSTAR":0,"MEAN_MOTION_DOT":-1.2e-6,"MEAN_MOTION_DDOT":0},{"OBJECT_NAME":"BEIDOU 20 (C18)","OBJECT_ID":"2015-053A","EPOCH":"2022-08-19T01:46:33.426336","MEAN_MOTION":1.00279069,"ECCENTRICITY":0.0046528,"INCLINATION":51.4017,"RA_OF_ASC_NODE":275.1519,"ARG_OF_PERICENTER":198.8538,"MEAN_ANOMALY":336.5211,"EPHEMERIS_TYPE":0,"CLASSIFICATION_TYPE":"U","NORAD_CAT_ID":40938,"ELEMENT_SET_NO":999,"REV_AT_EPOCH":2533,"BSTAR":0,"MEAN_MOTION_DOT":-1.1e-6,"MEAN_MOTION_DDOT":0},{"OBJECT_NAME":"BEIDOU IGSO-6 (C13)","OBJECT_ID":"2016-021A","EPOCH":"2022-08-19T06:31:38.830944","MEAN_MOTION":1.00270687,"ECCENTRICITY":0.004436,"INCLINATION":58.191,"RA_OF_ASC_NODE":52.1812,"ARG_OF_PERICENTER":214.9677,"MEAN_ANOMALY":254.3175,"EPHEMERIS_TYPE":0,"CLASSIFICATION_TYPE":"U","NORAD_CAT_ID":41434,"ELEMENT_SET_NO":999,"REV_AT_EPOCH":2346,"BSTAR":0,"MEAN_MOTION_DOT":-1.45e-6,"MEAN_MOTION_DDOT":0}]