BEIDOU 3                
1 36287U 10001A   22231.38641910 -.00000286  00000+0  00000+0 0  9995
2 36287   2.0078  49.2888 0003637  41.4231 156.5794  1.00274221 46149
BEIDOU 5                
1 36828U 10036A   22231.54330035 -.00000122  00000+0  00000+0 0  9994
2 36828  54.2013 175.6508 0030551 190.2032 265.3703  1.00280684 44213
BEIDOU 6                
1 37210U 10057A   22231.35853609 -.00000118  00000+0  00000+0 0  9994
2 37210   0.9618  53.8500 0005962 131.0658  71.8700  1.00273250 43264
BEIDOU 7                
1 37256U 10068A   22231.55671953 -.00000184  00000+0  00000+0 0  9991
2 37256  50.1014 288.8938 0023828 200.4157 146.3286  1.00287464 42776
BEIDOU 8                
1 37384U 11013A   22231.45117892 -.00000166  00000+0  00000+0 0  9990
2 37384  60.3839  53.6333 0023340 177.1180   6.4462  1.00290426 41658
BEIDOU 9                
1 37763U 11038A   22231.30619477 -.00000073  00000+0  00000+0 0  9995
2 37763  54.4836 178.1507 0099222 228.3525 126.8164  1.00267793 40623
BEIDOU 10               
1 37948U 11073A   22230.10300024 -.00000148  00000+0  00000+0 0  9994
2 37948  50.2180 288.5550 0085901 218.5794 312.3100  1.00280499 39376
BEIDOU 11               
1 38091U 12008A   22231.63738403  .00000050  00000+0  00000+0 0  9999
2 38091   1.7020  68.9824 0013141 344.5600 202.6188  1.00275776 38465
BEIDOU 12               
1 38250U 12018A   22231.53978551 -.00000119  00000+0  00000+0 0  9993
2 38250  56.6772 351.4773 0021526 249.2403 138.0368  1.86234388 70260
BEIDOU 13               
1 38251U 12018B   22231.44469174 -.00000119  00000+0  00000+0 0  9990
2 38251  56.5922 350.8009 0012358 248.7365 118.9625  1.86234148 70263
BEIDOU 15               
1 38775U 12050B   22230.41086480 -.00000054  00000+0  00000+0 0  9996
2 38775  55.4348 109.6001 0013540 329.2951 261.3051  1.86231458 67618
BEIDOU 16               
1 38953U 12059A   22231.51867201 -.00000183  00000+0  00000+0 0  9996
2 38953   2.1416  84.1308 0009333 303.5788 210.9345  1.00271189 35898
BEIDOU 17               
1 40549U 15019A   22230.69424362 -.00000185  00000+0  00000+0 0  9996
2 40549  51.7785 312.0344 0038059 195.3007 164.9313  1.00284155 27062
BEIDOU 18               
1 40748U 15037A   22231.55281035 -.00000121  00000+0  00000+0 0  9991
2 40748  55.8433 349.6253 0003028  62.5023 287.0356  1.86233398 48080
BEIDOU 19               
1 40749U 15037B   22231.36073825 -.00000120  00000+0  00000+0 0  9996
2 40749  55.8473 349.6218 0002119 334.1264  20.8811  1.86232199 48077
BEIDOU 20               
1 40938U 15053A   22231.07399799 -.00000110  00000+0  00000+0 0  9992
2 40938  51.4017 275.1519 0046528 198.8538 336.5211  1.00279069 25339
BEIDOU IGSO-6           
1 41434U 16021A   22231.27197721 -.00000145  00000+0  00000+0 0  9991
2 41434  58.1910  52.1812 0044360 214.9677 254.3175  1.00270687 23467
